CCSDS_OEM_VERS = 2.0  
CREATION_DATE  = 2026-02-25T14:49:38
ORIGINATOR     = ESOC/OPS-GFA                            
 
 



META_START
OBJECT_NAME          = LISA                                    
OBJECT_ID            = -1000                                   
CENTER_NAME          = SUN                     
REF_FRAME            = EME2000 
TIME_SYSTEM          = TCB
START_TIME           = 2036-12-09T00:00:29.327664            
STOP_TIME            = 2037-01-08T00:00:29.327664            
INTERPOLATION        = HERMITE                                 
INTERPOLATION_DEGREE = 7                                       
META_STOP

2036-12-26T00:00:29.327664     4.05272297057143301e+07    1.32201807218167737e+08    5.86442482504607365e+07   -2.85630171858759390e+01    7.33614052569423958e+00    3.12778538668633299e+00   -1.58750707361739975e-06   -5.17801006145530412e-06   -2.29695407648915989e-06
2036-12-26T01:00:29.327664     4.04243925670871958e+07    1.32228183767890438e+08    5.86554933924539834e+07   -2.85687249668784560e+01    7.31749781003421429e+00    3.11951555040752870e+00   -1.58348228638146094e-06   -5.17905392343063402e-06   -2.29739929164345989e-06
2036-12-26T02:00:29.327664     4.03215349065311477e+07    1.32254493197079182e+08    5.86667087601545677e+07   -2.85744182571901923e+01    7.29885134112925460e+00    3.11124411342070539e+00   -1.57945669005082716e-06   -5.18009519746971027e-06   -2.29784335869625663e-06
2036-12-26T03:00:29.327664     4.02186567762179077e+07    1.32280735492239028e+08    5.86778943478073925e+07   -2.85800970539019161e+01    7.28020112829690280e+00    3.10297107985944276e+00   -1.57543028657321933e-06   -5.18113388303156344e-06   -2.29828627741617499e-06
2036-12-26T04:00:29.327664     4.01157582283296734e+07    1.32306910639908642e+08    5.86890501496722177e+07   -2.85857613541114226e+01    7.26154718085659301e+00    3.09469645385813141e+00   -1.57140307790914497e-06   -5.18216997961404273e-06   -2.29872804758915493e-06
2036-12-26T05:00:29.327664     4.00128393150590509e+07    1.32333018626660183e+08    5.87001761600237116e+07   -2.85914111549235415e+01    7.24288950812965293e+00    3.08642023955196843e+00   -1.56737506600445687e-06   -5.18320348667046716e-06   -2.29916866898127814e-06
2036-12-26T06:00:29.327664     3.99099000886090845e+07    1.32359059439099416e+08    5.87112723731514215e+07   -2.85970464534501225e+01    7.22422811943929322e+00    3.07814244107695734e+00   -1.56334625281424408e-06   -5.18423440368286338e-06   -2.29960814137139871e-06
2036-12-26T07:00:29.327664     3.98069406011931822e+07    1.32385033063865647e+08    5.87223387833597735e+07   -2.86026672468100642e+01    7.20556302411060567e+00    3.06986306256990282e+00   -1.55931664029395141e-06   -5.18526273013262275e-06   -2.30004646453813103e-06
2036-12-26T08:00:29.327664     3.97039609050351307e+07    1.32410939487631768e+08    5.87333753849681094e+07   -2.86082735321292922e+01    7.18689423147056150e+00    3.06158210816841247e+00   -1.55528623039548962e-06   -5.18628846549268580e-06   -2.30048363825629775e-06
2036-12-26T09:00:29.327665     3.96009610523690134e+07    1.32436778697104245e+08    5.87443821723106578e+07   -2.86138653065407667e+01    7.16822175084799973e+00    3.05329958201089458e+00   -1.55125502507163727e-06   -5.18731160923729665e-06   -2.30091966230131654e-06
2036-12-26T10:00:29.327664     3.94979410954392552e+07    1.32462550679023147e+08    5.87553591397365481e+07   -2.86194425671844925e+01    7.14954559157363523e+00    3.04501548823655188e+00   -1.54722302628792373e-06   -5.18833216087926650e-06   -2.30135453646573253e-06
2036-12-26T11:00:29.327664     3.93949010865006000e+07    1.32488255420162112e+08    5.87663062816097960e+07   -2.86250053112075022e+01    7.13086576298004005e+00    3.03672983098538607e+00   -1.54319023599483887e-06   -5.18935011988616315e-06   -2.30178826052197464e-06
2036-12-26T12:00:29.327664     3.92918410778179392e+07    1.32513892907328397e+08    5.87772235923093632e+07   -2.86305535357638838e+01    7.11218227440164785e+00    3.02844261439819107e+00   -1.53915665613709940e-06   -5.19036548570922444e-06   -2.30222083423530209e-06
2036-12-26T13:00:29.327664     3.91887611216665208e+07    1.32539463127362877e+08    5.87881110662290752e+07   -2.86360872380147526e+01    7.09349513517474950e+00    3.02015384261655440e+00   -1.53512228869468231e-06   -5.19137825790437896e-06   -2.30265225741738726e-06
2036-12-26T14:00:29.327664     3.90856612703317106e+07    1.32564966067140013e+08    5.87989686977776960e+07   -2.86416064151282761e+01    7.07480435463748769e+00    3.01186351978285094e+00   -1.53108713559474108e-06   -5.19238843586914148e-06   -2.30308252980953360e-06
2036-12-26T15:00:29.327664     3.89825415761091113e+07    1.32590401713567898e+08    5.88097964813789055e+07   -2.86471110642796667e+01    7.05610994212984899e+00    3.00357165004024607e+00   -1.52705119881790662e-06   -5.19339601916243738e-06   -2.30351165122488393e-06
2036-12-26T16:00:29.327664     3.88794020913044512e+07    1.32615770053588271e+08    5.88205944114712775e+07   -2.86526011826511748e+01    7.03741190699366648e+00    2.99527823753269162e+00   -1.52301448030770047e-06   -5.19440100723094494e-06   -2.30393962142653289e-06
2036-12-26T17:00:29.327664     3.87762428682336062e+07    1.32641071074176490e+08    5.88313624825083315e+07   -2.86580767674321066e+01    7.01871025857261088e+00    2.98698328640492194e+00   -1.51897698202278680e-06   -5.19540339956883132e-06   -2.30436644019880047e-06
2036-12-26T18:00:29.327664     3.86730639592187926e+07    1.32666304762342528e+08    5.88421006889589131e+07   -2.86635378158190228e+01    7.00000500621150312e+00    2.97868680080215364e+00   -1.51493870594033405e-06   -5.19640319572294153e-06   -2.30479210734934032e-06
2036-12-26T19:00:29.327664     3.85698654166032299e+07    1.32691471105127126e+08    5.88528090253055617e+07   -2.86689843250149252e+01    6.98129615925897795e+00    2.97038878487126112e+00   -1.51089965399640289e-06   -5.19740039511718812e-06   -2.30521662263125969e-06
2036-12-26T20:00:29.327665     3.84666472927295938e+07    1.32716570089607507e+08    5.88634874860469550e+07   -2.86744162922304504e+01    6.96258372706357420e+00    2.96208924275904550e+00   -1.50685982815759968e-06   -5.19839499726932474e-06   -2.30563998583930937e-06
2036-12-26T21:00:29.327664     3.83634096399540231e+07    1.32741601702893615e+08    5.88741360656962991e+07   -2.86798337146831130e+01    6.94386771897627142e+00    2.95378817861336085e+00   -1.50281923038318068e-06   -5.19938700167394378e-06   -2.30606219675797708e-06
2036-12-26T22:00:29.327664     3.82601525106426552e+07    1.32766565932129085e+08    5.88847547587817460e+07   -2.86852365895974692e+01    6.92514814434986992e+00    2.94548559658283615e+00   -1.49877786263277523e-06   -5.20037640782687428e-06   -2.30648325517228120e-06
2036-12-26T23:00:29.327664     3.81568759571716338e+07    1.32791462764491200e+08    5.88953435598463789e+07   -2.86906249142051308e+01    6.90642501253898011e+00    2.93718150081687313e+00   -1.49473572686636844e-06   -5.20136321522509387e-06   -2.30690316086775510e-06
2036-12-27T00:00:29.327664     3.80535800319270119e+07    1.32816292187190950e+08    5.89059024634482265e+07   -2.86959986857447724e+01    6.88769833290002431e+00    2.92887589546564442e+00   -1.49069282504432343e-06   -5.20234742336671097e-06   -2.30732191363045858e-06
2036-12-27T01:00:29.327664     3.79502647873048037e+07    1.32841054187472984e+08    5.89164314641602412e+07   -2.87013579014621172e+01    6.86896811479122515e+00    2.92056878468009273e+00   -1.48664915912736369e-06   -5.20332903175115027e-06   -2.30773951324701347e-06
2036-12-27T02:00:29.327664     3.78469302757109106e+07    1.32865748752615690e+08    5.89269305565703437e+07   -2.87067025586099618e+01    6.85023436757261006e+00    2.91226017261192682e+00   -1.48260473107657931e-06   -5.20430803987887411e-06   -2.30815595950450447e-06
2036-12-27T03:00:29.327664     3.77435765495611280e+07    1.32890375869931087e+08    5.89373997352813780e+07   -2.87120326544481479e+01    6.83149710060599880e+00    2.90395006341362238e+00   -1.47855954285346522e-06   -5.20528444725171190e-06   -2.30857125219066004e-06
2036-12-27T04:00:29.327664     3.76402036612810791e+07    1.32914935526764959e+08    5.89478389949111640e+07   -2.87173481862435906e+01    6.81275632325500524e+00    2.89563846123841717e+00   -1.47451359641984078e-06   -5.20625825337255272e-06   -2.30898539109362879e-06
2036-12-27T05:00:29.327664     3.75368116633062288e+07    1.32939427710496753e+08    5.89582483300924599e+07   -2.87226491512702644e+01    6.79401204488502852e+00    2.88732537024031144e+00   -1.47046689373777355e-06   -5.20722945774502086e-06   -2.30939837600192944e-06
2036-12-27T06:00:29.327664     3.74334006080818474e+07    1.32963852408539698e+08    5.89686277354729697e+07   -2.87279355468092028e+01    6.77526427486325300e+00    2.87901079457406439e+00   -1.46641943677004955e-06   -5.20819805987520718e-06   -2.30981020670515140e-06
2036-12-27T07:00:29.327665     3.73299705480629578e+07    1.32988209608340681e+08    5.89789772057153806e+07   -2.87332073701485129e+01    6.75651302255864117e+00    2.87069473839519418e+00   -1.46237122747946966e-06   -5.20916405926912798e-06   -2.31022088299288024e-06
2036-12-27T08:00:29.327664     3.72265215357143655e+07    1.33012499297380358e+08    5.89892967354973182e+07   -2.87384646185833681e+01    6.73775829734192833e+00    2.86237720585997391e+00   -1.45832226782924511e-06   -5.21012745543417263e-06   -2.31063040465528345e-06
2036-12-27T09:00:29.327664     3.71230536235105768e+07    1.33036721463173121e+08    5.89995863195113838e+07   -2.87437072894160046e+01    6.71900010858562435e+00    2.85405820112543074e+00   -1.45427255978314218e-06   -5.21108824787959903e-06   -2.31103877148338150e-06
